{"type": "FeatureCollection", "features": [ {"type": "Feature", "properties": {"norad_id": 30914, "name": "FENGYUN 1C DEB", "group": "fengyun-1c-debris", "lat": 43.24178119527649, "lon": -145.5636095940079, "alt_km": 891.8327268427474, "timestamp": "2025-12-05T14:45:15.578429+00:00", "meta": {"OBJECT_NAME": "FENGYUN 1C DEB", "OBJECT_ID": "1999-025AZC", "EPOCH": "2025-12-04T09:11:52.960704", "MEAN_MOTION": 13.08772987, "ECCENTRICITY": 0.0515432, "INCLINATION": 99.9821, "RA_OF_ASC_NODE": 222.8163, "ARG_OF_PERICENTER": 13.3139, "MEAN_ANOMALY": 348.1004, "EPHEMERIS_TYPE": 0, "CLASSIFICATION_TYPE": "U", "NORAD_CAT_ID": 30914, "ELEMENT_SET_NO": 999, "REV_AT_EPOCH": 58966, "BSTAR": 0.0079369, "MEAN_MOTION_DOT": 5.164e-05, "MEAN_MOTION_DDOT": 0}, "tle": {"line1": "1 30914U 99025AZC 25338.38325186  .00005164  00000+0  79369-2 0  9990", "line2": "2 30914  99.9821 222.8163 0515432  13.3139 348.1004 13.08772987589667"}}, "geometry": {"type": "Point", "coordinates": [-145.5636095940079, 43.24178119527649]}}, {"type": "Feature", "properties": {"norad_id": 30915, "name": "FENGYUN 1C DEB", "group": "fengyun-1c-debris", "lat": 21.183902695968875, "lon": 52.157556963447526, "alt_km": 845.9761701734024, "timestamp": "2025-12-05T14:45:15.578440+00:00", "meta": {"OBJECT_NAME": "FENGYUN 1C DEB", "OBJECT_ID": "1999-025AZD", "EPOCH": "2025-12-03T22:12:26.394336", "MEAN_MOTION": 14.24934113, "ECCENTRICITY": 0.00537934, "INCLINATION": 98.943, "RA_OF_ASC_NODE": 53.9356, "ARG_OF_PERICENTER": 192.6719, "MEAN_ANOMALY": 167.3111, "EPHEMERIS_TYPE": 0, "CLASSIFICATION_TYPE": "U", "NORAD_CAT_ID": 30915, "ELEMENT_SET_NO": 999, "REV_AT_EPOCH": 96387, "BSTAR": 0.0032692177, "MEAN_MOTION_DOT": 7.72e-05, "MEAN_MOTION_DDOT": 0}, "tle": {"line1": "1 30915U 99025AZD 25337.92530549  .00007720  00000+0  32692-2 0  9999", "line2": "2 30915  98.9430  53.9356 0053793 192.6719 167.3111 14.24934113963871"}}, "geometry": {"type": "Point", "coordinates": [52.157556963447526, 21.183902695968875]}}, {"type": "Feature", "properties": {"norad_id": 30916, "name": "FENGYUN 1C DEB", "group": "fengyun-1c-debris", "lat": 56.406839598667574, "lon": -126.22138447397772, "alt_km": 899.4390331364366, "timestamp": "2025-12-05T14:45:15.578450+00:00", "meta": {"OBJECT_NAME": "FENGYUN 1C DEB", "OBJECT_ID": "1999-025AZE", "EPOCH": "2025-12-03T22:05:23.424864", "MEAN_MOTION": 14.08742079, "ECCENTRICITY": 0.0062408, "INCLINATION": 99.0032, "RA_OF_ASC_NODE": 38.2781, "ARG_OF_PERICENTER": 283.2218, "MEAN_ANOMALY": 251.3545, "EPHEMERIS_TYPE": 0, "CLASSIFICATION_TYPE": "U", "NORAD_CAT_ID": 30916, "ELEMENT_SET_NO": 999, "REV_AT_EPOCH": 95719, "BSTAR": 0.0022666, "MEAN_MOTION_DOT": 3.934e-05, "MEAN_MOTION_DDOT": 0}, "tle": {"line1": "1 30916U 99025AZE 25337.92041001  .00003934  00000+0  22666-2 0  9993", "line2": "2 30916  99.0032  38.2781 0062408 283.2218 251.3545 14.08742079957197"}}, "geometry": {"type": "Point", "coordinates": [-126.22138447397772, 56.406839598667574]}}, {"type": "Feature", "properties": {"norad_id": 30918, "name": "FENGYUN 1C DEB", "group": "fengyun-1c-debris", "lat": 25.52644418488301, "lon": -83.52278279814298, "alt_km": 789.9846043150401, "timestamp": "2025-12-05T14:45:15.578460+00:00", "meta": {"OBJECT_NAME": "FENGYUN 1C DEB", "OBJECT_ID": "1999-025AZG", "EPOCH": "2025-12-03T07:08:17.297088", "MEAN_MOTION": 13.96756294, "ECCENTRICITY": 0.0158518, "INCLINATION": 98.4161, "RA_OF_ASC_NODE": 90.3012, "ARG_OF_PERICENTER": 151.6952, "MEAN_ANOMALY": 236.1908, "EPHEMERIS_TYPE": 0, "CLASSIFICATION_TYPE": "U", "NORAD_CAT_ID": 30918, "ELEMENT_SET_NO": 999, "REV_AT_EPOCH": 94921, "BSTAR": 0.0017671, "MEAN_MOTION_DOT": 2.691e-05, "MEAN_MOTION_DDOT": 0}, "tle": {"line1": "1 30918U 99025AZG 25337.29742242  .00002691  00000+0  17671-2 0  9999", "line2": "2 30918  98.4161  90.3012 0158518 151.6952 236.1908 13.96756294949210"}}, "geometry": {"type": "Point", "coordinates": [-83.52278279814298, 25.52644418488301]}}, {"type": "Feature", "properties": {"norad_id": 30920, "name": "FENGYUN 1C DEB", "group": "fengyun-1c-debris", "lat": -80.66247512846127, "lon": -166.34900764271572, "alt_km": 916.5866000757533, "timestamp": "2025-12-05T14:45:15.578470+00:00", "meta": {"OBJECT_NAME": "FENGYUN 1C DEB", "OBJECT_ID": "1999-025AZJ", "EPOCH": "2025-12-04T15:26:19.940640", "MEAN_MOTION": 14.16423309, "ECCENTRICITY": 0.0111321, "INCLINATION": 98.9193, "RA_OF_ASC_NODE": 119.9185, "ARG_OF_PERICENTER": 121.6596, "MEAN_ANOMALY": 239.5494, "EPHEMERIS_TYPE": 0, "CLASSIFICATION_TYPE": "U", "NORAD_CAT_ID": 30920, "ELEMENT_SET_NO": 999, "REV_AT_EPOCH": 94979, "BSTAR": 0.0097172, "MEAN_MOTION_DOT": 0.00020534, "MEAN_MOTION_DDOT": 0}, "tle": {"line1": "1 30920U 99025AZJ 25338.64328635  .00020534  00000+0  97172-2 0  9998", "line2": "2 30920  98.9193 119.9185 0111321 121.6596 239.5494 14.16423309949795"}}, "geometry": {"type": "Point", "coordinates": [-166.34900764271572, -80.66247512846127]}}, {"type": "Feature", "properties": {"norad_id": 30921, "name": "FENGYUN 1C DEB", "group": "fengyun-1c-debris", "lat": 71.99138638830436, "lon": -84.43376591474325, "alt_km": 767.2036218671064, "timestamp": "2025-12-05T14:45:15.578480+00:00", "meta": {"OBJECT_NAME": "FENGYUN 1C DEB", "OBJECT_ID": "1999-025AZK", "EPOCH": "2025-12-04T05:01:37.013088", "MEAN_MOTION": 14.32608662, "ECCENTRICITY": 0.0017437, "INCLINATION": 98.8441, "RA_OF_ASC_NODE": 65.5167, "ARG_OF_PERICENTER": 64.2585, "MEAN_ANOMALY": 357.6329, "EPHEMERIS_TYPE": 0, "CLASSIFICATION_TYPE": "U", "NORAD_CAT_ID": 30921, "ELEMENT_SET_NO": 999, "REV_AT_EPOCH": 96702, "BSTAR": 0.0041314, "MEAN_MOTION_DOT": 0.0001121, "MEAN_MOTION_DDOT": 0}, "tle": {"line1": "1 30921U 99025AZK 25338.20945617  .00011210  00000+0  41314-2 0  9994", "line2": "2 30921  98.8441  65.5167 0017437  64.2585 357.6329 14.32608662967020"}}, "geometry": {"type": "Point", "coordinates": [-84.43376591474325, 71.99138638830436]}}, {"type": "Feature", "properties": {"norad_id": 30922, "name": "FENGYUN 1C DEB", "group": "fengyun-1c-debris", "lat": 77.94005366326822, "lon": -49.717426301584695, "alt_km": 816.1592769714598, "timestamp": "2025-12-05T14:45:15.578491+00:00", "meta": {"OBJECT_NAME": "FENGYUN 1C DEB", "OBJECT_ID": "1999-025AZL", "EPOCH": "2025-12-04T07:56:57.993792", "MEAN_MOTION": 14.17427324, "ECCENTRICITY": 0.0014817, "INCLINATION": 98.6407, "RA_OF_ASC_NODE": 354.4097, "ARG_OF_PERICENTER": 76.7066, "MEAN_ANOMALY": 298.9671, "EPHEMERIS_TYPE": 0, "CLASSIFICATION_TYPE": "U", "NORAD_CAT_ID": 30922, "ELEMENT_SET_NO": 999, "REV_AT_EPOCH": 96445, "BSTAR": 0.001088, "MEAN_MOTION_DOT": 2.164e-05, "MEAN_MOTION_DDOT": 0}, "tle": {"line1": "1 30922U 99025AZL 25338.33122678  .00002164  00000+0  10880-2 0  9995", "line2": "2 30922  98.6407 354.4097 0014817  76.7066 298.9671 14.17427324964452"}}, "geometry": {"type": "Point", "coordinates": [-49.717426301584695, 77.94005366326822]}}, {"type": "Feature", "properties": {"norad_id": 30925, "name": "FENGYUN 1C DEB", "group": "fengyun-1c-debris", "lat": -80.88781033352917, "lon": -171.74636697711824, "alt_km": 733.654008216291, "timestamp": "2025-12-05T14:45:15.578501+00:00", "meta": {"OBJECT_NAME": "FENGYUN 1C DEB", "OBJECT_ID": "1999-025AZP", "EPOCH": "2025-12-02T07:33:36.546048", "MEAN_MOTION": 14.42841359, "ECCENTRICITY": 0.0032682, "INCLINATION": 98.8823, "RA_OF_ASC_NODE": 107.6578, "ARG_OF_PERICENTER": 267.6181, "MEAN_ANOMALY": 154.0428, "EPHEMERIS_TYPE": 0, "CLASSIFICATION_TYPE": "U", "NORAD_CAT_ID": 30925, "ELEMENT_SET_NO": 999, "REV_AT_EPOCH": 96922, "BSTAR": 0.0029562, "MEAN_MOTION_DOT": 9.896e-05, "MEAN_MOTION_DDOT": 0}, "tle": {"line1": "1 30925U 99025AZP 25336.31500632  .00009896  00000+0  29562-2 0  9990", "line2": "2 30925  98.8823 107.6578 0032682 267.6181 154.0428 14.42841359969228"}}, "geometry": {"type": "Point", "coordinates": [-171.74636697711824, -80.88781033352917]}}, {"type": "Feature", "properties": {"norad_id": 30926, "name": "FENGYUN 1C DEB", "group": "fengyun-1c-debris", "lat": -45.73674771493116, "lon": -71.29607759037543, "alt_km": 606.9599500584991, "timestamp": "2025-12-05T14:45:15.578511+00:00", "meta": {"OBJECT_NAME": "FENGYUN 1C DEB", "OBJECT_ID": "1999-025AZQ", "EPOCH": "2025-12-04T08:19:16.938048", "MEAN_MOTION": 14.89177682, "ECCENTRICITY": 0.0166696, "INCLINATION": 98.8014, "RA_OF_ASC_NODE": 278.147, "ARG_OF_PERICENTER": 48.5806, "MEAN_ANOMALY": 312.9596, "EPHEMERIS_TYPE": 0, "CLASSIFICATION_TYPE": "U", "NORAD_CAT_ID": 30926, "ELEMENT_SET_NO": 999, "REV_AT_EPOCH": 642, "BSTAR": 0.001091, "MEAN_MOTION_DOT": 0.00013332, "MEAN_MOTION_DDOT": 0}, "tle": {"line1": "1 30926U 99025AZQ 25338.34672382  .00013332  00000+0  10910-2 0  9995", "line2": "2 30926  98.8014 278.1470 0166696  48.5806 312.9596 14.89177682  6426"}}, "geometry": {"type": "Point", "coordinates": [-71.29607759037543, -45.73674771493116]}}, {"type": "Feature", "properties": {"norad_id": 30927, "name": "FENGYUN 1C DEB", "group": "fengyun-1c-debris", "lat": 49.659192815358246, "lon": 28.971700560950786, "alt_km": 793.1956980344503, "timestamp": "2025-12-05T14:45:15.578521+00:00", "meta": {"OBJECT_NAME": "FENGYUN 1C DEB", "OBJECT_ID": "1999-025AZR", "EPOCH": "2025-12-02T23:27:28.547136", "MEAN_MOTION": 14.08892452, "ECCENTRICITY": 0.00987852, "INCLINATION": 99.1836, "RA_OF_ASC_NODE": 37.2663, "ARG_OF_PERICENTER": 33.6709, "MEAN_ANOMALY": 327.0684, "EPHEMERIS_TYPE": 0, "CLASSIFICATION_TYPE": "U", "NORAD_CAT_ID": 30927, "ELEMENT_SET_NO": 999, "REV_AT_EPOCH": 95546, "BSTAR": 0.0020438482, "MEAN_MOTION_DOT": 3.651e-05, "MEAN_MOTION_DDOT": 0}, "tle": {"line1": "1 30927U 99025AZR 25336.97741374  .00003651  00000+0  20438-2 0  9990", "line2": "2 30927  99.1836  37.2663 0098785  33.6709 327.0684 14.08892452955463"}}, "geometry": {"type": "Point", "coordinates": [28.971700560950786, 49.659192815358246]}}]}